<?xml version="1.0" encoding="UTF-8"?>
<TrainingCenterDatabase
  xsi:schemaLocation="http://www.garmin.com/xmlschemas/TrainingCenterDatabase/v2 http://www.garmin.com/xmlschemas/TrainingCenterDatabasev2.xsd"
  xmlns:ns5="http://www.garmin.com/xmlschemas/ActivityGoals/v1"
  xmlns:ns3="http://www.garmin.com/xmlschemas/ActivityExtension/v2"
  xmlns:ns2="http://www.garmin.com/xmlschemas/UserProfile/v2"
  xmlns="http://www.garmin.com/xmlschemas/TrainingCenterDatabase/v2"
  xmlns:xsi="http://www.w3.org/2001/XMLSchema-instance" xmlns:ns4="http://www.garmin.com/xmlschemas/ProfileExtension/v1">
  <Activities>
    <Activity Sport="Biking">
      <Id>2024-08-11T13:06:58.000Z</Id>
      <Lap StartTime="2024-08-11T13:06:58.000Z">
        <TotalTimeSeconds>100.0</TotalTimeSeconds>
        <DistanceMeters>150.6</DistanceMeters>
        <MaximumSpeed>2.3329999446868896</MaximumSpeed>
        <Calories>4</Calories>
        <Intensity>Active</Intensity>
        <TriggerMethod>Manual</TriggerMethod>
        <Track>
          <Trackpoint>
            <Time>2024-08-11T13:06:58.000Z</Time>
            <Position>
              <LatitudeDegrees>59.32691995985806</LatitudeDegrees>
              <LongitudeDegrees>17.964532244950533</LongitudeDegrees>
            </Position>
            <AltitudeMeters>37.0</AltitudeMeters>
            <DistanceMeters>0.0</DistanceMeters>
            <Extensions>
              <ns3:TPX>
                <ns3:Speed>1.2089999914169312</ns3:Speed>
              </ns3:TPX>
            </Extensions>
          </Trackpoint>
          <Trackpoint>
            <Time>2024-08-11T13:07:00.000Z</Time>
            <Position>
              <LatitudeDegrees>59.32690889574587</LatitudeDegrees>
              <LongitudeDegrees>17.964577423408628</LongitudeDegrees>
            </Position>
            <AltitudeMeters>36.400001525878906</AltitudeMeters>
            <DistanceMeters>2.9100000858306885</DistanceMeters>
            <Extensions>
              <ns3:TPX>
                <ns3:Speed>1.2879999876022339</ns3:Speed>
              </ns3:TPX>
            </Extensions>
          </Trackpoint>
          <Trackpoint>
            <Time>2024-08-11T13:07:01.000Z</Time>
            <Position>
              <LatitudeDegrees>59.32690009474754</LatitudeDegrees>
              <LongitudeDegrees>17.964598461985588</LongitudeDegrees>
            </Position>
            <AltitudeMeters>36.20000076293945</AltitudeMeters>
            <DistanceMeters>4.460000038146973</DistanceMeters>
            <Extensions>
              <ns3:TPX>
                <ns3:Speed>1.2879999876022339</ns3:Speed>
              </ns3:TPX>
            </Extensions>
          </Trackpoint>
          <Trackpoint>
            <Time>2024-08-11T13:07:02.000Z</Time>
            <Position>
              <LatitudeDegrees>59.32689598761499</LatitudeDegrees>
              <LongitudeDegrees>17.96461564488709</LongitudeDegrees>
            </Position>
            <AltitudeMeters>36.20000076293945</AltitudeMeters>
            <DistanceMeters>5.400000095367432</DistanceMeters>
            <Extensions>
              <ns3:TPX>
                <ns3:Speed>1.3530000448226929</ns3:Speed>
              </ns3:TPX>
            </Extensions>
          </Trackpoint>
          <Trackpoint>
            <Time>2024-08-11T13:07:05.000Z</Time>
            <Position>
              <LatitudeDegrees>59.32688584551215</LatitudeDegrees>
              <LongitudeDegrees>17.964692506939173</LongitudeDegrees>
            </Position>
            <AltitudeMeters>36.0</AltitudeMeters>
            <DistanceMeters>9.760000228881836</DistanceMeters>
            <Extensions>
              <ns3:TPX>
                <ns3:Speed>1.4179999828338623</ns3:Speed>
              </ns3:TPX>
            </Extensions>
          </Trackpoint>
          <Trackpoint>
            <Time>2024-08-11T13:07:12.000Z</Time>
            <Position>
              <LatitudeDegrees>59.3268212210387</LatitudeDegrees>
              <LongitudeDegrees>17.964889565482736</LongitudeDegrees>
            </Position>
            <AltitudeMeters>36.0</AltitudeMeters>
            <DistanceMeters>23.0</DistanceMeters>
            <Extensions>
              <ns3:TPX>
                <ns3:Speed>1.4179999828338623</ns3:Speed>
              </ns3:TPX>
            </Extensions>
          </Trackpoint>
          <Trackpoint>
            <Time>2024-08-11T13:07:18.000Z</Time>
            <Position>
              <LatitudeDegrees>59.326811749488115</LatitudeDegrees>
              <LongitudeDegrees>17.965026861056685</LongitudeDegrees>
            </Position>
            <AltitudeMeters>36.20000076293945</AltitudeMeters>
            <DistanceMeters>30.860000610351562</DistanceMeters>
            <Extensions>
              <ns3:TPX>
                <ns3:Speed>1.409000039100647</ns3:Speed>
              </ns3:TPX>
            </Extensions>
          </Trackpoint>
          <Trackpoint>
            <Time>2024-08-11T13:07:19.000Z</Time>
            <Position>
              <LatitudeDegrees>59.326810827478766</LatitudeDegrees>
              <LongitudeDegrees>17.96504127793014</LongitudeDegrees>
            </Position>
            <AltitudeMeters>36.20000076293945</AltitudeMeters>
            <DistanceMeters>31.690000534057617</DistanceMeters>
            <Extensions>
              <ns3:TPX>
                <ns3:Speed>1.399999976158142</ns3:Speed>
              </ns3:TPX>
            </Extensions>
          </Trackpoint>
          <Trackpoint>
            <Time>2024-08-11T13:07:21.000Z</Time>
            <Position>
              <LatitudeDegrees>59.3267987575382</LatitudeDegrees>
              <LongitudeDegrees>17.965081930160522</LongitudeDegrees>
            </Position>
            <AltitudeMeters>36.20000076293945</AltitudeMeters>
            <DistanceMeters>34.41999816894531</DistanceMeters>
            <Extensions>
              <ns3:TPX>
                <ns3:Speed>1.399999976158142</ns3:Speed>
              </ns3:TPX>
            </Extensions>
          </Trackpoint>
          <Trackpoint>
            <Time>2024-08-11T13:07:24.000Z</Time>
            <Position>
              <LatitudeDegrees>59.326781406998634</LatitudeDegrees>
              <LongitudeDegrees>17.965142028406262</LongitudeDegrees>
            </Position>
            <AltitudeMeters>36.20000076293945</AltitudeMeters>
            <DistanceMeters>38.27000045776367</DistanceMeters>
            <Extensions>
              <ns3:TPX>
                <ns3:Speed>1.305999994277954</ns3:Speed>
              </ns3:TPX>
            </Extensions>
          </Trackpoint>
          <Trackpoint>
            <Time>2024-08-11T13:07:26.000Z</Time>
            <Position>
              <LatitudeDegrees>59.3267866037786</LatitudeDegrees>
              <LongitudeDegrees>17.965158792212605</LongitudeDegrees>
            </Position>
            <AltitudeMeters>36.400001525878906</AltitudeMeters>
            <DistanceMeters>39.130001068115234</DistanceMeters>
            <Extensions>
              <ns3:TPX>
                <ns3:Speed>1.305999994277954</ns3:Speed>
              </ns3:TPX>
            </Extensions>
          </Trackpoint>
          <Trackpoint>
            <Time>2024-08-11T13:07:31.000Z</Time>
            <Position>
              <LatitudeDegrees>59.326772689819336</LatitudeDegrees>
              <LongitudeDegrees>17.96527580358088</LongitudeDegrees>
            </Position>
            <AltitudeMeters>36.400001525878906</AltitudeMeters>
            <DistanceMeters>45.88999938964844</DistanceMeters>
            <Extensions>
              <ns3:TPX>
                <ns3:Speed>1.3899999856948853</ns3:Speed>
              </ns3:TPX>
            </Extensions>
          </Trackpoint>
          <Trackpoint>
            <Time>2024-08-11T13:07:36.000Z</Time>
            <Position>
              <LatitudeDegrees>59.326758021488786</LatitudeDegrees>
              <LongitudeDegrees>17.96542340889573</LongitudeDegrees>
            </Position>
            <AltitudeMeters>36.400001525878906</AltitudeMeters>
            <DistanceMeters>54.4900016784668</DistanceMeters>
            <Extensions>
              <ns3:TPX>
                <ns3:Speed>1.3899999856948853</ns3:Speed>
              </ns3:TPX>
            </Extensions>
          </Trackpoint>
          <Trackpoint>
            <Time>2024-08-11T13:07:38.000Z</Time>
            <Position>
              <LatitudeDegrees>59.326768750324845</LatitudeDegrees>
              <LongitudeDegrees>17.965449644252658</LongitudeDegrees>
            </Position>
            <AltitudeMeters>36.599998474121094</AltitudeMeters>
            <DistanceMeters>56.150001525878906</DistanceMeters>
            <Extensions>
              <ns3:TPX>
                <ns3:Speed>1.3899999856948853</ns3:Speed>
              </ns3:TPX>
            </Extensions>
          </Trackpoint>
          <Trackpoint>
            <Time>2024-08-11T13:07:42.000Z</Time>
            <Position>
              <LatitudeDegrees>59.3268072232604</LatitudeDegrees>
              <LongitudeDegrees>17.965512089431286</LongitudeDegrees>
            </Position>
            <AltitudeMeters>36.599998474121094</AltitudeMeters>
            <DistanceMeters>61.7400016784668</DistanceMeters>
            <Extensions>
              <ns3:TPX>
                <ns3:Speed>1.399999976158142</ns3:Speed>
              </ns3:TPX>
            </Extensions>
          </Trackpoint>
          <Trackpoint>
            <Time>2024-08-11T13:07:44.000Z</Time>
            <Position>
              <LatitudeDegrees>59.326827926561236</LatitudeDegrees>
              <LongitudeDegrees>17.965539079159498</LongitudeDegrees>
            </Position>
            <AltitudeMeters>37.0</AltitudeMeters>
            <DistanceMeters>64.45999908447266</DistanceMeters>
            <Extensions>
              <ns3:TPX>
                <ns3:Speed>1.2130000591278076</ns3:Speed>
              </ns3:TPX>
            </Extensions>
          </Trackpoint>
          <Trackpoint>
            <Time>2024-08-11T13:07:47.000Z</Time>
            <Position>
              <LatitudeDegrees>59.3268677406013</LatitudeDegrees>
              <LongitudeDegrees>17.96558408997953</LongitudeDegrees>
            </Position>
            <AltitudeMeters>37.400001525878906</AltitudeMeters>
            <DistanceMeters>69.62000274658203</DistanceMeters>
            <Extensions>
              <ns3:TPX>
                <ns3:Speed>1.2599999904632568</ns3:Speed>
              </ns3:TPX>
            </Extensions>
          </Trackpoint>
          <Trackpoint>
            <Time>2024-08-11T13:07:49.000Z</Time>
            <Position>
              <LatitudeDegrees>59.32689514942467</LatitudeDegrees>
              <LongitudeDegrees>17.965604374185205</LongitudeDegrees>
            </Position>
            <AltitudeMeters>37.79999923706055</AltitudeMeters>
            <DistanceMeters>72.94999694824219</DistanceMeters>
            <Extensions>
              <ns3:TPX>
                <ns3:Speed>1.2599999904632568</ns3:Speed>
              </ns3:TPX>
            </Extensions>
          </Trackpoint>
          <Trackpoint>
            <Time>2024-08-11T13:07:57.000Z</Time>
            <Position>
              <LatitudeDegrees>59.326980812475085</LatitudeDegrees>
              <LongitudeDegrees>17.965730940923095</LongitudeDegrees>
            </Position>
            <AltitudeMeters>38.20000076293945</AltitudeMeters>
            <DistanceMeters>84.69999694824219</DistanceMeters>
            <Extensions>
              <ns3:TPX>
                <ns3:Speed>1.4930000305175781</ns3:Speed>
              </ns3:TPX>
            </Extensions>
          </Trackpoint>
          <Trackpoint>
            <Time>2024-08-11T13:08:02.000Z</Time>
            <Position>
              <LatitudeDegrees>59.327026745304465</LatitudeDegrees>
              <LongitudeDegrees>17.965812915936112</LongitudeDegrees>
            </Position>
            <AltitudeMeters>38.20000076293945</AltitudeMeters>
            <DistanceMeters>91.6500015258789</DistanceMeters>
            <Extensions>
              <ns3:TPX>
                <ns3:Speed>1.2039999961853027</ns3:Speed>
              </ns3:TPX>
            </Extensions>
          </Trackpoint>
          <Trackpoint>
            <Time>2024-08-11T13:08:03.000Z</Time>
            <Position>
              <LatitudeDegrees>59.32704501785338</LatitudeDegrees>
              <LongitudeDegrees>17.965827165171504</LongitudeDegrees>
            </Position>
            <AltitudeMeters>38.20000076293945</AltitudeMeters>
            <DistanceMeters>93.83000183105469</DistanceMeters>
            <Extensions>
              <ns3:TPX>
                <ns3:Speed>2.3329999446868896</ns3:Speed>
              </ns3:TPX>
            </Extensions>
          </Trackpoint>
          <Trackpoint>
            <Time>2024-08-11T13:08:04.000Z</Time>
            <Position>
              <LatitudeDegrees>59.32706505060196</LatitudeDegrees>
              <LongitudeDegrees>17.965834205970168</LongitudeDegrees>
            </Position>
            <AltitudeMeters>38.0</AltitudeMeters>
            <DistanceMeters>95.86000061035156</DistanceMeters>
            <Extensions>
              <ns3:TPX>
                <ns3:Speed>2.3329999446868896</ns3:Speed>
              </ns3:TPX>
            </Extensions>
          </Trackpoint>
          <Trackpoint>
            <Time>2024-08-11T13:08:07.000Z</Time>
            <Position>
              <LatitudeDegrees>59.32709254324436</LatitudeDegrees>
              <LongitudeDegrees>17.965877121314406</LongitudeDegrees>
            </Position>
            <AltitudeMeters>37.599998474121094</AltitudeMeters>
            <DistanceMeters>99.69999694824219</DistanceMeters>
            <Extensions>
              <ns3:TPX>
                <ns3:Speed>1.2039999961853027</ns3:Speed>
              </ns3:TPX>
            </Extensions>
          </Trackpoint>
          <Trackpoint>
            <Time>2024-08-11T13:08:14.000Z</Time>
            <Position>
              <LatitudeDegrees>59.327170327305794</LatitudeDegrees>
              <LongitudeDegrees>17.965992037206888</LongitudeDegrees>
            </Position>
            <AltitudeMeters>36.79999923706055</AltitudeMeters>
            <DistanceMeters>110.5999984741211</DistanceMeters>
            <Extensions>
              <ns3:TPX>
                <ns3:Speed>1.399999976158142</ns3:Speed>
              </ns3:TPX>
            </Extensions>
          </Trackpoint>
          <Trackpoint>
            <Time>2024-08-11T13:08:17.000Z</Time>
            <Position>
              <LatitudeDegrees>59.32720108889043</LatitudeDegrees>
              <LongitudeDegrees>17.96602967195213</LongitudeDegrees>
            </Position>
            <AltitudeMeters>36.79999923706055</AltitudeMeters>
            <DistanceMeters>114.52999877929688</DistanceMeters>
            <Extensions>
              <ns3:TPX>
                <ns3:Speed>1.399999976158142</ns3:Speed>
              </ns3:TPX>
            </Extensions>
          </Trackpoint>
          <Trackpoint>
            <Time>2024-08-11T13:08:19.000Z</Time>
            <Position>
              <LatitudeDegrees>59.32722112163901</LatitudeDegrees>
              <LongitudeDegrees>17.966057918965816</LongitudeDegrees>
            </Position>
            <AltitudeMeters>36.599998474121094</AltitudeMeters>
            <DistanceMeters>117.12999725341797</DistanceMeters>
            <Extensions>
              <ns3:TPX>
                <ns3:Speed>1.399999976158142</ns3:Speed>
              </ns3:TPX>
            </Extensions>
          </Trackpoint>
          <Trackpoint>
            <Time>2024-08-11T13:08:21.000Z</Time>
            <Position>
              <LatitudeDegrees>59.32725112885237</LatitudeDegrees>
              <LongitudeDegrees>17.966090440750122</LongitudeDegrees>
            </Position>
            <AltitudeMeters>36.400001525878906</AltitudeMeters>
            <DistanceMeters>120.94000244140625</DistanceMeters>
            <Extensions>
              <ns3:TPX>
                <ns3:Speed>1.465000033378601</ns3:Speed>
              </ns3:TPX>
            </Extensions>
          </Trackpoint>
          <Trackpoint>
            <Time>2024-08-11T13:08:25.000Z</Time>
            <Position>
              <LatitudeDegrees>59.32730007916689</LatitudeDegrees>
              <LongitudeDegrees>17.966161100193858</LongitudeDegrees>
            </Position>
            <AltitudeMeters>36.0</AltitudeMeters>
            <DistanceMeters>127.7699966430664</DistanceMeters>
            <Extensions>
              <ns3:TPX>
                <ns3:Speed>1.5019999742507935</ns3:Speed>
              </ns3:TPX>
            </Extensions>
          </Trackpoint>
          <Trackpoint>
            <Time>2024-08-11T13:08:26.000Z</Time>
            <Position>
              <LatitudeDegrees>59.3273183517158</LatitudeDegrees>
              <LongitudeDegrees>17.966164955869317</LongitudeDegrees>
            </Position>
            <AltitudeMeters>36.0</AltitudeMeters>
            <DistanceMeters>129.75999450683594</DistanceMeters>
            <Extensions>
              <ns3:TPX>
                <ns3:Speed>1.5490000247955322</ns3:Speed>
              </ns3:TPX>
            </Extensions>
          </Trackpoint>
          <Trackpoint>
            <Time>2024-08-11T13:08:31.000Z</Time>
            <Position>
              <LatitudeDegrees>59.32740619406104</LatitudeDegrees>
              <LongitudeDegrees>17.966242488473654</LongitudeDegrees>
            </Position>
            <AltitudeMeters>35.599998474121094</AltitudeMeters>
            <DistanceMeters>140.39999389648438</DistanceMeters>
            <Extensions>
              <ns3:TPX>
                <ns3:Speed>1.6799999475479126</ns3:Speed>
              </ns3:TPX>
            </Extensions>
          </Trackpoint>
          <Trackpoint>
            <Time>2024-08-11T13:08:33.000Z</Time>
            <Position>
              <LatitudeDegrees>59.327446008101106</LatitudeDegrees>
              <LongitudeDegrees>17.966254809871316</LongitudeDegrees>
            </Position>
            <AltitudeMeters>35.400001525878906</AltitudeMeters>
            <DistanceMeters>144.92999267578125</DistanceMeters>
            <Extensions>
              <ns3:TPX>
                <ns3:Speed>1.6799999475479126</ns3:Speed>
              </ns3:TPX>
            </Extensions>
          </Trackpoint>
          <Trackpoint>
            <Time>2024-08-11T13:08:34.000Z</Time>
            <Position>
              <LatitudeDegrees>59.32746511884034</LatitudeDegrees>
              <LongitudeDegrees>17.966256234794855</LongitudeDegrees>
            </Position>
            <AltitudeMeters>35.400001525878906</AltitudeMeters>
            <DistanceMeters>147.0500030517578</DistanceMeters>
            <Extensions>
              <ns3:TPX>
                <ns3:Speed>1.6799999475479126</ns3:Speed>
              </ns3:TPX>
            </Extensions>
          </Trackpoint>
          <Trackpoint>
            <Time>2024-08-11T13:08:38.000Z</Time>
            <Position>
              <LatitudeDegrees>59.32749747298658</LatitudeDegrees>
              <LongitudeDegrees>17.966274674981833</LongitudeDegrees>
            </Position>
            <AltitudeMeters>34.79999923706055</AltitudeMeters>
            <DistanceMeters>150.60000610351562</DistanceMeters>
            <Extensions>
              <ns3:TPX>
                <ns3:Speed>1.5490000247955322</ns3:Speed>
              </ns3:TPX>
            </Extensions>
          </Trackpoint>
        </Track>
        <Extensions>
          <ns3:LX>
            <ns3:AvgSpeed>1.5060000610351565</ns3:AvgSpeed>
          </ns3:LX>
        </Extensions>
      </Lap>
      <Lap StartTime="2024-08-11T13:08:38.000Z">
        <TotalTimeSeconds>105.0</TotalTimeSeconds>
        <DistanceMeters>175.08</DistanceMeters>
        <MaximumSpeed>1.8569999933242798</MaximumSpeed>
        <Calories>2</Calories>
        <Intensity>Active</Intensity>
        <TriggerMethod>Manual</TriggerMethod>
        <Track>
          <Trackpoint>
            <Time>2024-08-11T13:08:38.000Z</Time>
            <Position>
              <LatitudeDegrees>59.32749747298658</LatitudeDegrees>
              <LongitudeDegrees>17.966274674981833</LongitudeDegrees>
            </Position>
            <AltitudeMeters>34.79999923706055</AltitudeMeters>
            <DistanceMeters>150.60000610351562</DistanceMeters>
            <Extensions>
              <ns3:TPX>
                <ns3:Speed>1.5490000247955322</ns3:Speed>
              </ns3:TPX>
            </Extensions>
          </Trackpoint>
          <Trackpoint>
            <Time>2024-08-11T13:08:39.000Z</Time>
            <Position>
              <LatitudeDegrees>59.327508453279734</LatitudeDegrees>
              <LongitudeDegrees>17.96627207659185</LongitudeDegrees>
            </Position>
            <AltitudeMeters>34.599998474121094</AltitudeMeters>
            <DistanceMeters>151.66000366210938</DistanceMeters>
            <Extensions>
              <ns3:TPX>
                <ns3:Speed>1.5490000247955322</ns3:Speed>
              </ns3:TPX>
            </Extensions>
          </Trackpoint>
          <Trackpoint>
            <Time>2024-08-11T13:08:40.000Z</Time>
            <Position>
              <LatitudeDegrees>59.32750727981329</LatitudeDegrees>
              <LongitudeDegrees>17.96625640243292</LongitudeDegrees>
            </Position>
            <AltitudeMeters>34.400001525878906</AltitudeMeters>
            <DistanceMeters>152.55999755859375</DistanceMeters>
            <Extensions>
              <ns3:TPX>
                <ns3:Speed>1.5210000276565552</ns3:Speed>
              </ns3:TPX>
            </Extensions>
          </Trackpoint>
          <Trackpoint>
            <Time>2024-08-11T13:08:41.000Z</Time>
            <Position>
              <LatitudeDegrees>59.32750434614718</LatitudeDegrees>
              <LongitudeDegrees>17.96624039299786</LongitudeDegrees>
            </Position>
            <AltitudeMeters>34.20000076293945</AltitudeMeters>
            <DistanceMeters>153.47000122070312</DistanceMeters>
            <Extensions>
              <ns3:TPX>
                <ns3:Speed>1.4179999828338623</ns3:Speed>
              </ns3:TPX>
            </Extensions>
          </Trackpoint>
          <Trackpoint>
            <Time>2024-08-11T13:08:44.000Z</Time>
            <Position>
              <LatitudeDegrees>59.327513398602605</LatitudeDegrees>
              <LongitudeDegrees>17.966157915070653</LongitudeDegrees>
            </Position>
            <AltitudeMeters>33.79999923706055</AltitudeMeters>
            <DistanceMeters>158.30999755859375</DistanceMeters>
            <Extensions>
              <ns3:TPX>
                <ns3:Speed>1.4839999675750732</ns3:Speed>
              </ns3:TPX>
            </Extensions>
          </Trackpoint>
          <Trackpoint>
            <Time>2024-08-11T13:08:46.000Z</Time>
            <Position>
              <LatitudeDegrees>59.32749956846237</LatitudeDegrees>
              <LongitudeDegrees>17.966117011383176</LongitudeDegrees>
            </Position>
            <AltitudeMeters>33.599998474121094</AltitudeMeters>
            <DistanceMeters>161.0399932861328</DistanceMeters>
            <Extensions>
              <ns3:TPX>
                <ns3:Speed>1.409000039100647</ns3:Speed>
              </ns3:TPX>
            </Extensions>
          </Trackpoint>
          <Trackpoint>
            <Time>2024-08-11T13:08:48.000Z</Time>
            <Position>
              <LatitudeDegrees>59.32750979438424</LatitudeDegrees>
              <LongitudeDegrees>17.96606303192675</LongitudeDegrees>
            </Position>
            <AltitudeMeters>33.599998474121094</AltitudeMeters>
            <DistanceMeters>164.32000732421875</DistanceMeters>
            <Extensions>
              <ns3:TPX>
                <ns3:Speed>1.4459999799728394</ns3:Speed>
              </ns3:TPX>
            </Extensions>
          </Trackpoint>
          <Trackpoint>
            <Time>2024-08-11T13:08:50.000Z</Time>
            <Position>
              <LatitudeDegrees>59.327529575675726</LatitudeDegrees>
              <LongitudeDegrees>17.965993797406554</LongitudeDegrees>
            </Position>
            <AltitudeMeters>33.20000076293945</AltitudeMeters>
            <DistanceMeters>168.86000061035156</DistanceMeters>
            <Extensions>
              <ns3:TPX>
                <ns3:Speed>1.4459999799728394</ns3:Speed>
              </ns3:TPX>
            </Extensions>
          </Trackpoint>
          <Trackpoint>
            <Time>2024-08-11T13:08:51.000Z</Time>
            <Position>
              <LatitudeDegrees>59.32753510773182</LatitudeDegrees>
              <LongitudeDegrees>17.96595943160355</LongitudeDegrees>
            </Position>
            <AltitudeMeters>33.0</AltitudeMeters>
            <DistanceMeters>170.8800048828125</DistanceMeters>
            <Extensions>
              <ns3:TPX>
                <ns3:Speed>1.4839999675750732</ns3:Speed>
              </ns3:TPX>
            </Extensions>
          </Trackpoint>
          <Trackpoint>
            <Time>2024-08-11T13:08:57.000Z</Time>
            <Position>
              <LatitudeDegrees>59.327528569847345</LatitudeDegrees>
              <LongitudeDegrees>17.965800762176514</LongitudeDegrees>
            </Position>
            <AltitudeMeters>32.79999923706055</AltitudeMeters>
            <DistanceMeters>179.85000610351562</DistanceMeters>
            <Extensions>
              <ns3:TPX>
                <ns3:Speed>1.465000033378601</ns3:Speed>
              </ns3:TPX>
            </Extensions>
          </Trackpoint>
          <Trackpoint>
            <Time>2024-08-11T13:08:58.000Z</Time>
            <Position>
              <LatitudeDegrees>59.32752530090511</LatitudeDegrees>
              <LongitudeDegrees>17.965776789933443</LongitudeDegrees>
            </Position>
            <AltitudeMeters>32.599998474121094</AltitudeMeters>
            <DistanceMeters>181.25999450683594</DistanceMeters>
            <Extensions>
              <ns3:TPX>
                <ns3:Speed>1.465000033378601</ns3:Speed>
              </ns3:TPX>
            </Extensions>
          </Trackpoint>
          <Trackpoint>
            <Time>2024-08-11T13:08:59.000Z</Time>
            <Position>
              <LatitudeDegrees>59.32752446271479</LatitudeDegrees>
              <LongitudeDegrees>17.96574980020523</LongitudeDegrees>
            </Position>
            <AltitudeMeters>32.599998474121094</AltitudeMeters>
            <DistanceMeters>182.75999450683594</DistanceMeters>
            <Extensions>
              <ns3:TPX>
                <ns3:Speed>1.465000033378601</ns3:Speed>
              </ns3:TPX>
            </Extensions>
          </Trackpoint>
          <Trackpoint>
            <Time>2024-08-11T13:09:01.000Z</Time>
            <Position>
              <LatitudeDegrees>59.32754835113883</LatitudeDegrees>
              <LongitudeDegrees>17.96568970195949</LongitudeDegrees>
            </Position>
            <AltitudeMeters>32.599998474121094</AltitudeMeters>
            <DistanceMeters>186.94000244140625</DistanceMeters>
            <Extensions>
              <ns3:TPX>
                <ns3:Speed>1.5679999589920044</ns3:Speed>
              </ns3:TPX>
            </Extensions>
          </Trackpoint>
          <Trackpoint>
            <Time>2024-08-11T13:09:03.000Z</Time>
            <Position>
              <LatitudeDegrees>59.32757928036153</LatitudeDegrees>
              <LongitudeDegrees>17.965615019202232</LongitudeDegrees>
            </Position>
            <AltitudeMeters>32.599998474121094</AltitudeMeters>
            <DistanceMeters>191.33999633789062</DistanceMeters>
            <Extensions>
              <ns3:TPX>
                <ns3:Speed>1.5679999589920044</ns3:Speed>
              </ns3:TPX>
            </Extensions>
          </Trackpoint>
          <Trackpoint>
            <Time>2024-08-11T13:09:04.000Z</Time>
            <Position>
              <LatitudeDegrees>59.3275844771415</LatitudeDegrees>
              <LongitudeDegrees>17.96558266505599</LongitudeDegrees>
            </Position>
            <AltitudeMeters>32.599998474121094</AltitudeMeters>
            <DistanceMeters>193.27000427246094</DistanceMeters>
            <Extensions>
              <ns3:TPX>
                <ns3:Speed>1.5770000219345093</ns3:Speed>
              </ns3:TPX>
            </Extensions>
          </Trackpoint>
          <Trackpoint>
            <Time>2024-08-11T13:09:08.000Z</Time>
            <Position>
              <LatitudeDegrees>59.32762999087572</LatitudeDegrees>
              <LongitudeDegrees>17.965475292876363</LongitudeDegrees>
            </Position>
            <AltitudeMeters>32.599998474121094</AltitudeMeters>
            <DistanceMeters>201.0</DistanceMeters>
            <Extensions>
              <ns3:TPX>
                <ns3:Speed>1.5859999656677246</ns3:Speed>
              </ns3:TPX>
            </Extensions>
          </Trackpoint>
          <Trackpoint>
            <Time>2024-08-11T13:09:09.000Z</Time>
            <Position>
              <LatitudeDegrees>59.3276294041425</LatitudeDegrees>
              <LongitudeDegrees>17.965444531291723</LongitudeDegrees>
            </Position>
            <AltitudeMeters>32.599998474121094</AltitudeMeters>
            <DistanceMeters>202.58999633789062</DistanceMeters>
            <Extensions>
              <ns3:TPX>
                <ns3:Speed>1.5959999561309814</ns3:Speed>
              </ns3:TPX>
            </Extensions>
          </Trackpoint>
          <Trackpoint>
            <Time>2024-08-11T13:09:10.000Z</Time>
            <Position>
              <LatitudeDegrees>59.327632589265704</LatitudeDegrees>
              <LongitudeDegrees>17.96541754156351</LongitudeDegrees>
            </Position>
            <AltitudeMeters>32.599998474121094</AltitudeMeters>
            <DistanceMeters>204.13999938964844</DistanceMeters>
            <Extensions>
              <ns3:TPX>
                <ns3:Speed>1.6239999532699585</ns3:Speed>
              </ns3:TPX>
            </Extensions>
          </Trackpoint>
          <Trackpoint>
            <Time>2024-08-11T13:09:12.000Z</Time>
            <Position>
              <LatitudeDegrees>59.32765337638557</LatitudeDegrees>
              <LongitudeDegrees>17.965354342013597</LongitudeDegrees>
            </Position>
            <AltitudeMeters>32.400001525878906</AltitudeMeters>
            <DistanceMeters>208.3000030517578</DistanceMeters>
            <Extensions>
              <ns3:TPX>
                <ns3:Speed>1.6979999542236328</ns3:Speed>
              </ns3:TPX>
            </Extensions>
          </Trackpoint>
          <Trackpoint>
            <Time>2024-08-11T13:09:13.000Z</Time>
            <Position>
              <LatitudeDegrees>59.327666871249676</LatitudeDegrees>
              <LongitudeDegrees>17.96531192958355</LongitudeDegrees>
            </Position>
            <AltitudeMeters>32.20000076293945</AltitudeMeters>
            <DistanceMeters>211.13999938964844</DistanceMeters>
            <Extensions>
              <ns3:TPX>
                <ns3:Speed>1.7079999446868896</ns3:Speed>
              </ns3:TPX>
            </Extensions>
          </Trackpoint>
          <Trackpoint>
            <Time>2024-08-11T13:09:14.000Z</Time>
            <Position>
              <LatitudeDegrees>59.32766578160226</LatitudeDegrees>
              <LongitudeDegrees>17.965283012017608</LongitudeDegrees>
            </Position>
            <AltitudeMeters>32.20000076293945</AltitudeMeters>
            <DistanceMeters>212.77999877929688</DistanceMeters>
            <Extensions>
              <ns3:TPX>
                <ns3:Speed>1.6979999542236328</ns3:Speed>
              </ns3:TPX>
            </Extensions>
          </Trackpoint>
          <Trackpoint>
            <Time>2024-08-11T13:09:16.000Z</Time>
            <Position>
              <LatitudeDegrees>59.32765765115619</LatitudeDegrees>
              <LongitudeDegrees>17.96523238532245</LongitudeDegrees>
            </Position>
            <AltitudeMeters>32.20000076293945</AltitudeMeters>
            <DistanceMeters>215.5500030517578</DistanceMeters>
            <Extensions>
              <ns3:TPX>
                <ns3:Speed>1.5959999561309814</ns3:Speed>
              </ns3:TPX>
            </Extensions>
          </Trackpoint>
          <Trackpoint>
            <Time>2024-08-11T13:09:18.000Z</Time>
            <Position>
              <LatitudeDegrees>59.32765723206103</LatitudeDegrees>
              <LongitudeDegrees>17.96517128124833</LongitudeDegrees>
            </Position>
            <AltitudeMeters>31.799999237060547</AltitudeMeters>
            <DistanceMeters>218.94000244140625</DistanceMeters>
            <Extensions>
              <ns3:TPX>
                <ns3:Speed>1.6050000190734863</ns3:Speed>
              </ns3:TPX>
            </Extensions>
          </Trackpoint>
          <Trackpoint>
            <Time>2024-08-11T13:09:24.000Z</Time>
            <Position>
              <LatitudeDegrees>59.327660417184234</LatitudeDegrees>
              <LongitudeDegrees>17.965010600164533</LongitudeDegrees>
            </Position>
            <AltitudeMeters>31.399999618530273</AltitudeMeters>
            <DistanceMeters>228.0399932861328</DistanceMeters>
            <Extensions>
              <ns3:TPX>
                <ns3:Speed>1.5770000219345093</ns3:Speed>
              </ns3:TPX>
            </Extensions>
          </Trackpoint>
          <Trackpoint>
            <Time>2024-08-11T13:09:25.000Z</Time>
            <Position>
              <LatitudeDegrees>59.32767156511545</LatitudeDegrees>
              <LongitudeDegrees>17.964978329837322</LongitudeDegrees>
            </Position>
            <AltitudeMeters>31.399999618530273</AltitudeMeters>
            <DistanceMeters>230.25999450683594</DistanceMeters>
            <Extensions>
              <ns3:TPX>
                <ns3:Speed>1.6050000190734863</ns3:Speed>
              </ns3:TPX>
            </Extensions>
          </Trackpoint>
          <Trackpoint>
            <Time>2024-08-11T13:09:32.000Z</Time>
            <Position>
              <LatitudeDegrees>59.327698638662696</LatitudeDegrees>
              <LongitudeDegrees>17.964796610176563</LongitudeDegrees>
            </Position>
            <AltitudeMeters>31.399999618530273</AltitudeMeters>
            <DistanceMeters>241.13999938964844</DistanceMeters>
            <Extensions>
              <ns3:TPX>
                <ns3:Speed>1.7640000581741333</ns3:Speed>
              </ns3:TPX>
            </Extensions>
          </Trackpoint>
          <Trackpoint>
            <Time>2024-08-11T13:09:33.000Z</Time>
            <Position>
              <LatitudeDegrees>59.32770417071879</LatitudeDegrees>
              <LongitudeDegrees>17.96477012336254</LongitudeDegrees>
            </Position>
            <AltitudeMeters>31.399999618530273</AltitudeMeters>
            <DistanceMeters>242.75999450683594</DistanceMeters>
            <Extensions>
              <ns3:TPX>
                <ns3:Speed>1.6699999570846558</ns3:Speed>
              </ns3:TPX>
            </Extensions>
          </Trackpoint>
          <Trackpoint>
            <Time>2024-08-11T13:09:36.000Z</Time>
            <Position>
              <LatitudeDegrees>59.32770811021328</LatitudeDegrees>
              <LongitudeDegrees>17.964687729254365</LongitudeDegrees>
            </Position>
            <AltitudeMeters>31.399999618530273</AltitudeMeters>
            <DistanceMeters>247.4600067138672</DistanceMeters>
            <Extensions>
              <ns3:TPX>
                <ns3:Speed>1.5770000219345093</ns3:Speed>
              </ns3:TPX>
            </Extensions>
          </Trackpoint>
          <Trackpoint>
            <Time>2024-08-11T13:09:38.000Z</Time>
            <Position>
              <LatitudeDegrees>59.327722527086735</LatitudeDegrees>
              <LongitudeDegrees>17.964632576331496</LongitudeDegrees>
            </Position>
            <AltitudeMeters>31.399999618530273</AltitudeMeters>
            <DistanceMeters>250.92999267578125</DistanceMeters>
            <Extensions>
              <ns3:TPX>
                <ns3:Speed>1.5770000219345093</ns3:Speed>
              </ns3:TPX>
            </Extensions>
          </Trackpoint>
          <Trackpoint>
            <Time>2024-08-11T13:09:43.000Z</Time>
            <Position>
              <LatitudeDegrees>59.327736692503095</LatitudeDegrees>
              <LongitudeDegrees>17.96449930407107</LongitudeDegrees>
            </Position>
            <AltitudeMeters>31.399999618530273</AltitudeMeters>
            <DistanceMeters>258.6099853515625</DistanceMeters>
            <Extensions>
              <ns3:TPX>
                <ns3:Speed>1.5770000219345093</ns3:Speed>
              </ns3:TPX>
            </Extensions>
          </Trackpoint>
          <Trackpoint>
            <Time>2024-08-11T13:09:51.000Z</Time>
            <Position>
              <LatitudeDegrees>59.327776758000255</LatitudeDegrees>
              <LongitudeDegrees>17.964290846139193</LongitudeDegrees>
            </Position>
            <AltitudeMeters>31.200000762939453</AltitudeMeters>
            <DistanceMeters>271.3500061035156</DistanceMeters>
            <Extensions>
              <ns3:TPX>
                <ns3:Speed>1.3339999914169312</ns3:Speed>
              </ns3:TPX>
            </Extensions>
          </Trackpoint>
          <Trackpoint>
            <Time>2024-08-11T13:09:54.000Z</Time>
            <Position>
              <LatitudeDegrees>59.32778614573181</LatitudeDegrees>
              <LongitudeDegrees>17.964203506708145</LongitudeDegrees>
            </Position>
            <AltitudeMeters>30.799999237060547</AltitudeMeters>
            <DistanceMeters>276.45001220703125</DistanceMeters>
            <Extensions>
              <ns3:TPX>
                <ns3:Speed>1.4559999704360962</ns3:Speed>
              </ns3:TPX>
            </Extensions>
          </Trackpoint>
          <Trackpoint>
            <Time>2024-08-11T13:09:57.000Z</Time>
            <Position>
              <LatitudeDegrees>59.32779368944466</LatitudeDegrees>
              <LongitudeDegrees>17.96411926858127</LongitudeDegrees>
            </Position>
            <AltitudeMeters>30.600000381469727</AltitudeMeters>
            <DistanceMeters>281.30999755859375</DistanceMeters>
            <Extensions>
              <ns3:TPX>
                <ns3:Speed>1.5579999685287476</ns3:Speed>
              </ns3:TPX>
            </Extensions>
          </Trackpoint>
          <Trackpoint>
            <Time>2024-08-11T13:10:05.000Z</Time>
            <Position>
              <LatitudeDegrees>59.32783308438957</LatitudeDegrees>
              <LongitudeDegrees>17.963856663554907</LongitudeDegrees>
            </Position>
            <AltitudeMeters>30.399999618530273</AltitudeMeters>
            <DistanceMeters>297.1099853515625</DistanceMeters>
            <Extensions>
              <ns3:TPX>
                <ns3:Speed>1.8569999933242798</ns3:Speed>
              </ns3:TPX>
            </Extensions>
          </Trackpoint>
          <Trackpoint>
            <Time>2024-08-11T13:10:07.000Z</Time>
            <Position>
              <LatitudeDegrees>59.327839370816946</LatitudeDegrees>
              <LongitudeDegrees>17.963799415156245</LongitudeDegrees>
            </Position>
            <AltitudeMeters>30.399999618530273</AltitudeMeters>
            <DistanceMeters>300.3299865722656</DistanceMeters>
            <Extensions>
              <ns3:TPX>
                <ns3:Speed>1.8569999933242798</ns3:Speed>
              </ns3:TPX>
            </Extensions>
          </Trackpoint>
          <Trackpoint>
            <Time>2024-08-11T13:10:10.000Z</Time>
            <Position>
              <LatitudeDegrees>59.32785043492913</LatitudeDegrees>
              <LongitudeDegrees>17.963715763762593</LongitudeDegrees>
            </Position>
            <AltitudeMeters>30.200000762939453</AltitudeMeters>
            <DistanceMeters>305.20001220703125</DistanceMeters>
            <Extensions>
              <ns3:TPX>
                <ns3:Speed>1.8569999933242798</ns3:Speed>
              </ns3:TPX>
            </Extensions>
          </Trackpoint>
          <Trackpoint>
            <Time>2024-08-11T13:10:11.000Z</Time>
            <Position>
              <LatitudeDegrees>59.32785823009908</LatitudeDegrees>
              <LongitudeDegrees>17.963703526183963</LongitudeDegrees>
            </Position>
            <AltitudeMeters>30.200000762939453</AltitudeMeters>
            <DistanceMeters>306.2799987792969</DistanceMeters>
            <Extensions>
              <ns3:TPX>
                <ns3:Speed>1.7079999446868896</ns3:Speed>
              </ns3:TPX>
            </Extensions>
          </Trackpoint>
          <Trackpoint>
            <Time>2024-08-11T13:10:16.000Z</Time>
            <Position>
              <LatitudeDegrees>59.32790542021394</LatitudeDegrees>
              <LongitudeDegrees>17.963566733524203</LongitudeDegrees>
            </Position>
            <AltitudeMeters>29.799999237060547</AltitudeMeters>
            <DistanceMeters>315.80999755859375</DistanceMeters>
            <Extensions>
              <ns3:TPX>
                <ns3:Speed>1.7079999446868896</ns3:Speed>
              </ns3:TPX>
            </Extensions>
          </Trackpoint>
          <Trackpoint>
            <Time>2024-08-11T13:10:17.000Z</Time>
            <Position>
              <LatitudeDegrees>59.32790265418589</LatitudeDegrees>
              <LongitudeDegrees>17.963541001081467</LongitudeDegrees>
            </Position>
            <AltitudeMeters>29.799999237060547</AltitudeMeters>
            <DistanceMeters>317.29998779296875</DistanceMeters>
            <Extensions>
              <ns3:TPX>
                <ns3:Speed>1.7079999446868896</ns3:Speed>
              </ns3:TPX>
            </Extensions>
          </Trackpoint>
          <Trackpoint>
            <Time>2024-08-11T13:10:19.000Z</Time>
            <Position>
              <LatitudeDegrees>59.32789904996753</LatitudeDegrees>
              <LongitudeDegrees>17.96349867247045</LongitudeDegrees>
            </Position>
            <AltitudeMeters>29.600000381469727</AltitudeMeters>
            <DistanceMeters>319.82000732421875</DistanceMeters>
            <Extensions>
              <ns3:TPX>
                <ns3:Speed>1.5579999685287476</ns3:Speed>
              </ns3:TPX>
            </Extensions>
          </Trackpoint>
          <Trackpoint>
            <Time>2024-08-11T13:10:21.000Z</Time>
            <Position>
              <LatitudeDegrees>59.327905587852</LatitudeDegrees>
              <LongitudeDegrees>17.963450979441404</LongitudeDegrees>
            </Position>
            <AltitudeMeters>29.600000381469727</AltitudeMeters>
            <DistanceMeters>322.6300048828125</DistanceMeters>
            <Extensions>
              <ns3:TPX>
                <ns3:Speed>1.465000033378601</ns3:Speed>
              </ns3:TPX>
            </Extensions>
          </Trackpoint>
          <Trackpoint>
            <Time>2024-08-11T13:10:23.000Z</Time>
            <Position>
              <LatitudeDegrees>59.32790265418589</LatitudeDegrees>
              <LongitudeDegrees>17.96339549124241</LongitudeDegrees>
            </Position>
            <AltitudeMeters>29.399999618530273</AltitudeMeters>
            <DistanceMeters>325.67999267578125</DistanceMeters>
            <Extensions>
              <ns3:TPX>
                <ns3:Speed>1.465000033378601</ns3:Speed>
              </ns3:TPX>
            </Extensions>
          </Trackpoint>
        </Track>
        <Extensions>
          <ns3:LX>
            <ns3:AvgSpeed>1.6649999618530276</ns3:AvgSpeed>
          </ns3:LX>
        </Extensions>
      </Lap>
      <Lap StartTime="2024-08-11T13:10:23.000Z">
        <TotalTimeSeconds>48.0</TotalTimeSeconds>
        <DistanceMeters>75.15</DistanceMeters>
        <MaximumSpeed>1.912999987602234</MaximumSpeed>
        <Calories>3</Calories>
        <Intensity>Active</Intensity>
        <TriggerMethod>Manual</TriggerMethod>
        <Track>
          <Trackpoint>
            <Time>2024-08-11T13:10:23.000Z</Time>
            <Position>
              <LatitudeDegrees>59.32790265418589</LatitudeDegrees>
              <LongitudeDegrees>17.96339549124241</LongitudeDegrees>
            </Position>
            <AltitudeMeters>29.399999618530273</AltitudeMeters>
            <DistanceMeters>325.67999267578125</DistanceMeters>
            <Extensions>
              <ns3:TPX>
                <ns3:Speed>1.465000033378601</ns3:Speed>
              </ns3:TPX>
            </Extensions>
          </Trackpoint>
          <Trackpoint>
            <Time>2024-08-11T13:10:24.000Z</Time>
            <Position>
              <LatitudeDegrees>59.32789728976786</LatitudeDegrees>
              <LongitudeDegrees>17.963369339704514</LongitudeDegrees>
            </Position>
            <AltitudeMeters>29.399999618530273</AltitudeMeters>
            <DistanceMeters>326.8299865722656</DistanceMeters>
            <Extensions>
              <ns3:TPX>
                <ns3:Speed>1.465000033378601</ns3:Speed>
              </ns3:TPX>
            </Extensions>
          </Trackpoint>
          <Trackpoint>
            <Time>2024-08-11T13:10:26.000Z</Time>
            <Position>
              <LatitudeDegrees>59.32787222787738</LatitudeDegrees>
              <LongitudeDegrees>17.96335550956428</LongitudeDegrees>
            </Position>
            <AltitudeMeters>29.399999618530273</AltitudeMeters>
            <DistanceMeters>329.69000244140625</DistanceMeters>
            <Extensions>
              <ns3:TPX>
                <ns3:Speed>1.3899999856948853</ns3:Speed>
              </ns3:TPX>
            </Extensions>
          </Trackpoint>
          <Trackpoint>
            <Time>2024-08-11T13:10:31.000Z</Time>
            <Position>
              <LatitudeDegrees>59.32780668139458</LatitudeDegrees>
              <LongitudeDegrees>17.963313683867455</LongitudeDegrees>
            </Position>
            <AltitudeMeters>29.600000381469727</AltitudeMeters>
            <DistanceMeters>337.25</DistanceMeters>
            <Extensions>
              <ns3:TPX>
                <ns3:Speed>1.4279999732971191</ns3:Speed>
              </ns3:TPX>
            </Extensions>
          </Trackpoint>
          <Trackpoint>
            <Time>2024-08-11T13:10:35.000Z</Time>
            <Position>
              <LatitudeDegrees>59.32773954235017</LatitudeDegrees>
              <LongitudeDegrees>17.963293315842748</LongitudeDegrees>
            </Position>
            <AltitudeMeters>29.799999237060547</AltitudeMeters>
            <DistanceMeters>344.760009765625</DistanceMeters>
            <Extensions>
              <ns3:TPX>
                <ns3:Speed>1.4279999732971191</ns3:Speed>
              </ns3:TPX>
            </Extensions>
          </Trackpoint>
          <Trackpoint>
            <Time>2024-08-11T13:10:43.000Z</Time>
            <Position>
              <LatitudeDegrees>59.32762647047639</LatitudeDegrees>
              <LongitudeDegrees>17.963253166526556</LongitudeDegrees>
            </Position>
            <AltitudeMeters>30.399999618530273</AltitudeMeters>
            <DistanceMeters>357.5299987792969</DistanceMeters>
            <Extensions>
              <ns3:TPX>
                <ns3:Speed>1.409000039100647</ns3:Speed>
              </ns3:TPX>
            </Extensions>
          </Trackpoint>
          <Trackpoint>
            <Time>2024-08-11T13:10:48.000Z</Time>
            <Position>
              <LatitudeDegrees>59.32755530811846</LatitudeDegrees>
              <LongitudeDegrees>17.96321033500135</LongitudeDegrees>
            </Position>
            <AltitudeMeters>30.600000381469727</AltitudeMeters>
            <DistanceMeters>365.79998779296875</DistanceMeters>
            <Extensions>
              <ns3:TPX>
                <ns3:Speed>1.7359999418258667</ns3:Speed>
              </ns3:TPX>
            </Extensions>
          </Trackpoint>
          <Trackpoint>
            <Time>2024-08-11T13:10:50.000Z</Time>
            <Position>
              <LatitudeDegrees>59.32752152904868</LatitudeDegrees>
              <LongitudeDegrees>17.9632059764117</LongitudeDegrees>
            </Position>
            <AltitudeMeters>30.799999237060547</AltitudeMeters>
            <DistanceMeters>369.489990234375</DistanceMeters>
            <Extensions>
              <ns3:TPX>
                <ns3:Speed>1.409000039100647</ns3:Speed>
              </ns3:TPX>
            </Extensions>
          </Trackpoint>
          <Trackpoint>
            <Time>2024-08-11T13:10:57.000Z</Time>
            <Position>
              <LatitudeDegrees>59.327424047514796</LatitudeDegrees>
              <LongitudeDegrees>17.96314973384142</LongitudeDegrees>
            </Position>
            <AltitudeMeters>31.200000762939453</AltitudeMeters>
            <DistanceMeters>380.760009765625</DistanceMeters>
            <Extensions>
              <ns3:TPX>
                <ns3:Speed>1.6239999532699585</ns3:Speed>
              </ns3:TPX>
            </Extensions>
          </Trackpoint>
          <Trackpoint>
            <Time>2024-08-11T13:11:01.000Z</Time>
            <Position>
              <LatitudeDegrees>59.327376103028655</LatitudeDegrees>
              <LongitudeDegrees>17.963116709142923</LongitudeDegrees>
            </Position>
            <AltitudeMeters>32.0</AltitudeMeters>
            <DistanceMeters>386.44000244140625</DistanceMeters>
            <Extensions>
              <ns3:TPX>
                <ns3:Speed>1.6239999532699585</ns3:Speed>
              </ns3:TPX>
            </Extensions>
          </Trackpoint>
          <Trackpoint>
            <Time>2024-08-11T13:11:02.000Z</Time>
            <Position>
              <LatitudeDegrees>59.32735875248909</LatitudeDegrees>
              <LongitudeDegrees>17.96311017125845</LongitudeDegrees>
            </Position>
            <AltitudeMeters>32.0</AltitudeMeters>
            <DistanceMeters>388.3999938964844</DistanceMeters>
            <Extensions>
              <ns3:TPX>
                <ns3:Speed>1.6239999532699585</ns3:Speed>
              </ns3:TPX>
            </Extensions>
          </Trackpoint>
          <Trackpoint>
            <Time>2024-08-11T13:11:10.000Z</Time>
            <Position>
              <LatitudeDegrees>59.32725951075554</LatitudeDegrees>
              <LongitudeDegrees>17.963133053854108</LongitudeDegrees>
            </Position>
            <AltitudeMeters>32.400001525878906</AltitudeMeters>
            <DistanceMeters>400.3800048828125</DistanceMeters>
            <Extensions>
              <ns3:TPX>
                <ns3:Speed>0.7739999890327454</ns3:Speed>
              </ns3:TPX>
            </Extensions>
          </Trackpoint>
          <Trackpoint>
            <Time>2024-08-11T13:11:11.000Z</Time>
            <Position>
              <LatitudeDegrees>59.32725775055587</LatitudeDegrees>
              <LongitudeDegrees>17.963147470727563</LongitudeDegrees>
            </Position>
            <AltitudeMeters>32.400001525878906</AltitudeMeters>
            <DistanceMeters>400.8299865722656</DistanceMeters>
            <Extensions>
              <ns3:TPX>
                <ns3:Speed>0.7739999890327454</ns3:Speed>
              </ns3:TPX>
            </Extensions>
          </Trackpoint>
        </Track>
        <Extensions>
          <ns3:LX>
            <ns3:AvgSpeed>1.5900000333786013</ns3:AvgSpeed>
          </ns3:LX>
        </Extensions>
      </Lap>
      <Lap StartTime="2024-08-11T13:11:11.000Z">
        <TotalTimeSeconds>47.0</TotalTimeSeconds>
        <DistanceMeters>75.05</DistanceMeters>
        <MaximumSpeed>1.5579999685287476</MaximumSpeed>
        <Calories>2</Calories>
        <Intensity>Active</Intensity>
        <TriggerMethod>Manual</TriggerMethod>
        <Track>
          <Trackpoint>
            <Time>2024-08-11T13:11:11.000Z</Time>
            <Position>
              <LatitudeDegrees>59.32725775055587</LatitudeDegrees>
              <LongitudeDegrees>17.963147470727563</LongitudeDegrees>
            </Position>
            <AltitudeMeters>32.400001525878906</AltitudeMeters>
            <DistanceMeters>400.8299865722656</DistanceMeters>
            <Extensions>
              <ns3:TPX>
                <ns3:Speed>0.7739999890327454</ns3:Speed>
              </ns3:TPX>
            </Extensions>
          </Trackpoint>
          <Trackpoint>
            <Time>2024-08-11T13:11:14.000Z</Time>
            <Position>
              <LatitudeDegrees>59.3272496201098</LatitudeDegrees>
              <LongitudeDegrees>17.963203378021717</LongitudeDegrees>
            </Position>
            <AltitudeMeters>32.599998474121094</AltitudeMeters>
            <DistanceMeters>404.489990234375</DistanceMeters>
            <Extensions>
              <ns3:TPX>
                <ns3:Speed>1.305999994277954</ns3:Speed>
              </ns3:TPX>
            </Extensions>
          </Trackpoint>
          <Trackpoint>
            <Time>2024-08-11T13:11:18.000Z</Time>
            <Position>
              <LatitudeDegrees>59.32724115438759</LatitudeDegrees>
              <LongitudeDegrees>17.963305553421378</LongitudeDegrees>
            </Position>
            <AltitudeMeters>32.599998474121094</AltitudeMeters>
            <DistanceMeters>410.4200134277344</DistanceMeters>
            <Extensions>
              <ns3:TPX>
                <ns3:Speed>1.2319999933242798</ns3:Speed>
              </ns3:TPX>
            </Extensions>
          </Trackpoint>
          <Trackpoint>
            <Time>2024-08-11T13:11:20.000Z</Time>
            <Position>
              <LatitudeDegrees>59.327240735292435</LatitudeDegrees>
              <LongitudeDegrees>17.963346289470792</LongitudeDegrees>
            </Position>
            <AltitudeMeters>32.599998474121094</AltitudeMeters>
            <DistanceMeters>412.57000732421875</DistanceMeters>
            <Extensions>
              <ns3:TPX>
                <ns3:Speed>1.343999981880188</ns3:Speed>
              </ns3:TPX>
            </Extensions>
          </Trackpoint>
          <Trackpoint>
            <Time>2024-08-11T13:11:22.000Z</Time>
            <Position>
              <LatitudeDegrees>59.327235370874405</LatitudeDegrees>
              <LongitudeDegrees>17.963402532041073</LongitudeDegrees>
            </Position>
            <AltitudeMeters>32.599998474121094</AltitudeMeters>
            <DistanceMeters>415.7900085449219</DistanceMeters>
            <Extensions>
              <ns3:TPX>
                <ns3:Speed>1.409000039100647</ns3:Speed>
              </ns3:TPX>
            </Extensions>
          </Trackpoint>
          <Trackpoint>
            <Time>2024-08-11T13:11:25.000Z</Time>
            <Position>
              <LatitudeDegrees>59.327227994799614</LatitudeDegrees>
              <LongitudeDegrees>17.963478974997997</LongitudeDegrees>
            </Position>
            <AltitudeMeters>32.79999923706055</AltitudeMeters>
            <DistanceMeters>420.20001220703125</DistanceMeters>
            <Extensions>
              <ns3:TPX>
                <ns3:Speed>1.409000039100647</ns3:Speed>
              </ns3:TPX>
            </Extensions>
          </Trackpoint>
          <Trackpoint>
            <Time>2024-08-11T13:11:31.000Z</Time>
            <Position>
              <LatitudeDegrees>59.32720963843167</LatitudeDegrees>
              <LongitudeDegrees>17.963642673566937</LongitudeDegrees>
            </Position>
            <AltitudeMeters>33.0</AltitudeMeters>
            <DistanceMeters>429.6499938964844</DistanceMeters>
            <Extensions>
              <ns3:TPX>
                <ns3:Speed>1.4179999828338623</ns3:Speed>
              </ns3:TPX>
            </Extensions>
          </Trackpoint>
          <Trackpoint>
            <Time>2024-08-11T13:11:32.000Z</Time>
            <Position>
              <LatitudeDegrees>59.32720150798559</LatitudeDegrees>
              <LongitudeDegrees>17.96367016620934</LongitudeDegrees>
            </Position>
            <AltitudeMeters>33.0</AltitudeMeters>
            <DistanceMeters>431.1300048828125</DistanceMeters>
            <Extensions>
              <ns3:TPX>
                <ns3:Speed>1.4179999828338623</ns3:Speed>
              </ns3:TPX>
            </Extensions>
          </Trackpoint>
          <Trackpoint>
            <Time>2024-08-11T13:11:37.000Z</Time>
            <Position>
              <LatitudeDegrees>59.32714752852917</LatitudeDegrees>
              <LongitudeDegrees>17.963813664391637</LongitudeDegrees>
            </Position>
            <AltitudeMeters>33.400001525878906</AltitudeMeters>
            <DistanceMeters>441.2200012207031</DistanceMeters>
            <Extensions>
              <ns3:TPX>
                <ns3:Speed>1.465000033378601</ns3:Speed>
              </ns3:TPX>
            </Extensions>
          </Trackpoint>
          <Trackpoint>
            <Time>2024-08-11T13:11:40.000Z</Time>
            <Position>
              <LatitudeDegrees>59.32710696011782</LatitudeDegrees>
              <LongitudeDegrees>17.963892370462418</LongitudeDegrees>
            </Position>
            <AltitudeMeters>33.599998474121094</AltitudeMeters>
            <DistanceMeters>447.6000061035156</DistanceMeters>
            <Extensions>
              <ns3:TPX>
                <ns3:Speed>1.5579999685287476</ns3:Speed>
              </ns3:TPX>
            </Extensions>
          </Trackpoint>
          <Trackpoint>
            <Time>2024-08-11T13:11:42.000Z</Time>
            <Position>
              <LatitudeDegrees>59.32710126042366</LatitudeDegrees>
              <LongitudeDegrees>17.963938554748893</LongitudeDegrees>
            </Position>
            <AltitudeMeters>33.599998474121094</AltitudeMeters>
            <DistanceMeters>450.4100036621094</DistanceMeters>
            <Extensions>
              <ns3:TPX>
                <ns3:Speed>1.5490000247955322</ns3:Speed>
              </ns3:TPX>
            </Extensions>
          </Trackpoint>
          <Trackpoint>
            <Time>2024-08-11T13:11:44.000Z</Time>
            <Position>
              <LatitudeDegrees>59.32709539309144</LatitudeDegrees>
              <LongitudeDegrees>17.963985912501812</LongitudeDegrees>
            </Position>
            <AltitudeMeters>33.599998474121094</AltitudeMeters>
            <DistanceMeters>453.1600036621094</DistanceMeters>
            <Extensions>
              <ns3:TPX>
                <ns3:Speed>1.4179999828338623</ns3:Speed>
              </ns3:TPX>
            </Extensions>
          </Trackpoint>
          <Trackpoint>
            <Time>2024-08-11T13:11:47.000Z</Time>
            <Position>
              <LatitudeDegrees>59.326991038396955</LatitudeDegrees>
              <LongitudeDegrees>17.964092446491122</LongitudeDegrees>
            </Position>
            <AltitudeMeters>33.599998474121094</AltitudeMeters>
            <DistanceMeters>464.32000732421875</DistanceMeters>
            <Extensions>
              <ns3:TPX>
                <ns3:Speed>1.38100004196167</ns3:Speed>
              </ns3:TPX>
            </Extensions>
          </Trackpoint>
          <Trackpoint>
            <Time>2024-08-11T13:11:48.000Z</Time>
            <Position>
              <LatitudeDegrees>59.326987601816654</LatitudeDegrees>
              <LongitudeDegrees>17.964109126478434</LongitudeDegrees>
            </Position>
            <AltitudeMeters>33.599998474121094</AltitudeMeters>
            <DistanceMeters>465.3299865722656</DistanceMeters>
            <Extensions>
              <ns3:TPX>
                <ns3:Speed>1.1100000143051147</ns3:Speed>
              </ns3:TPX>
            </Extensions>
          </Trackpoint>
          <Trackpoint>
            <Time>2024-08-11T13:11:52.000Z</Time>
            <Position>
              <LatitudeDegrees>59.32699363678694</LatitudeDegrees>
              <LongitudeDegrees>17.964152628555894</LongitudeDegrees>
            </Position>
            <AltitudeMeters>33.79999923706055</AltitudeMeters>
            <DistanceMeters>468.1300048828125</DistanceMeters>
            <Extensions>
              <ns3:TPX>
                <ns3:Speed>1.0820000171661377</ns3:Speed>
              </ns3:TPX>
            </Extensions>
          </Trackpoint>
          <Trackpoint>
            <Time>2024-08-11T13:11:53.000Z</Time>
            <Position>
              <LatitudeDegrees>59.32699363678694</LatitudeDegrees>
              <LongitudeDegrees>17.96416612342</LongitudeDegrees>
            </Position>
            <AltitudeMeters>33.79999923706055</AltitudeMeters>
            <DistanceMeters>468.79998779296875</DistanceMeters>
            <Extensions>
              <ns3:TPX>
                <ns3:Speed>1.0820000171661377</ns3:Speed>
              </ns3:TPX>
            </Extensions>
          </Trackpoint>
          <Trackpoint>
            <Time>2024-08-11T13:11:55.000Z</Time>
            <Position>
              <LatitudeDegrees>59.326987098902464</LatitudeDegrees>
              <LongitudeDegrees>17.964203590527177</LongitudeDegrees>
            </Position>
            <AltitudeMeters>34.0</AltitudeMeters>
            <DistanceMeters>470.8999938964844</DistanceMeters>
            <Extensions>
              <ns3:TPX>
                <ns3:Speed>0.652999997138977</ns3:Speed>
              </ns3:TPX>
            </Extensions>
          </Trackpoint>
          <Trackpoint>
            <Time>2024-08-11T13:11:57.000Z</Time>
            <Position>
              <LatitudeDegrees>59.326970586553216</LatitudeDegrees>
              <LongitudeDegrees>17.964249858632684</LongitudeDegrees>
            </Position>
            <AltitudeMeters>34.0</AltitudeMeters>
            <DistanceMeters>474.1400146484375</DistanceMeters>
            <Extensions>
              <ns3:TPX>
                <ns3:Speed>0.652999997138977</ns3:Speed>
              </ns3:TPX>
            </Extensions>
          </Trackpoint>
          <Trackpoint>
            <Time>2024-08-11T13:11:58.000Z</Time>
            <Position>
              <LatitudeDegrees>59.326957846060395</LatitudeDegrees>
              <LongitudeDegrees>17.964268047362566</LongitudeDegrees>
            </Position>
            <AltitudeMeters>34.400001525878906</AltitudeMeters>
            <DistanceMeters>475.8800048828125</DistanceMeters>
            <Extensions>
              <ns3:TPX>
                <ns3:Speed>1.156999945640564</ns3:Speed>
              </ns3:TPX>
            </Extensions>
          </Trackpoint>
        </Track>
        <Extensions>
          <ns3:LX>
            <ns3:AvgSpeed>1.5968089002244017</ns3:AvgSpeed>
          </ns3:LX>
        </Extensions>
      </Lap>
      <Creator xsi:type="Device_t">
        <Name>Edge 1030 Plus</Name>
        <UnitId>3410739734</UnitId>
        <ProductID>3570</ProductID>
        <Version>
          <VersionMajor>6</VersionMajor>
          <VersionMinor>75</VersionMinor>
          <BuildMajor>0</BuildMajor>
          <BuildMinor>0</BuildMinor>
        </Version>
      </Creator>
    </Activity>
  </Activities>
  <Author xsi:type="Application_t">
    <Name>Connect Api</Name>
    <Build>
      <Version>
        <VersionMajor>25</VersionMajor>
        <VersionMinor>20</VersionMinor>
        <BuildMajor>0</BuildMajor>
        <BuildMinor>0</BuildMinor>
      </Version>
    </Build>
    <LangID>en</LangID>
    <PartNumber>006-D2449-00</PartNumber>
  </Author>
</TrainingCenterDatabase>
